{
  "type": "FeatureCollection",
  "features": [
    {
      "type": "Feature",
      "properties": {
        "norad_id": 66174,
        "name": "HTV-X1",
        "group": "stations",
        "lat": -50.22164686617377,
        "lon": -7.139601288627777,
        "alt_km": 420.1708448175714,
        "timestamp": "2025-12-21T03:56:49.648487+00:00",
        "meta_object_name": "HTV-X1",
        "meta_object_id": "2025-241A",
        "meta_epoch": "2025-12-20T14:27:14.498496",
        "meta_mean_motion": 15.49685042,
        "meta_eccentricity": 0.00031934,
        "meta_inclination": 51.6321,
        "meta_ra_of_asc_node": 103.5427,
        "meta_arg_of_pericenter": 277.2005,
        "meta_mean_anomaly": 82.862,
        "meta_ephemeris_type": 0,
        "meta_classification_type": "U",
        "meta_norad_cat_id": 66174,
        "meta_element_set_no": 999,
        "meta_rev_at_epoch": 51,
        "meta_bstar": 0.00012983891,
        "meta_mean_motion_dot": 6.881e-05,
        "meta_mean_motion_ddot": 0,
        "tle_line1": "1 66174U 25241A   25354.60225114  .00006881  00000+0  12984-3 0  9997",
        "tle_line2": "2 66174  51.6321 103.5427 0003193 277.2005  82.8620 15.49685042   511"
      },
      "geometry": {
        "type": "Point",
        "coordinates": [
          -7.139601288627777,
          -50.22164686617377
        ]
      }
    },
    {
      "type": "Feature",
      "properties": {
        "norad_id": 66515,
        "name": "SZ-21 MODULE",
        "group": "stations",
        "lat": -8.946898005265261,
        "lon": -45.62952097138037,
        "alt_km": 377.14953793935547,
        "timestamp": "2025-12-21T03:56:49.648496+00:00",
        "meta_object_name": "SZ-21 MODULE",
        "meta_object_id": "2025-246C",
        "meta_epoch": "2025-12-20T15:44:09.666816",
        "meta_mean_motion": 15.62874588,
        "meta_eccentricity": 0.0005539,
        "meta_inclination": 41.4776,
        "meta_ra_of_asc_node": 327.7431,
        "meta_arg_of_pericenter": 301.9877,
        "meta_mean_anomaly": 58.0424,
        "meta_ephemeris_type": 0,
        "meta_classification_type": "U",
        "meta_norad_cat_id": 66515,
        "meta_element_set_no": 999,
        "meta_rev_at_epoch": 568,
        "meta_bstar": 0.00022369,
        "meta_mean_motion_dot": 0.00020514,
        "meta_mean_motion_ddot": 0,
        "tle_line1": "1 66515U 25246C   25354.65566744  .00020514  00000+0  22369-3 0  9990",
        "tle_line2": "2 66515  41.4776 327.7431 0005539 301.9877  58.0424 15.62874588  5684"
      },
      "geometry": {
        "type": "Point",
        "coordinates": [
          -45.62952097138037,
          -8.946898005265261
        ]
      }
    },
    {
      "type": "Feature",
      "properties": {
        "norad_id": 66645,
        "name": "SHENZHOU-22",
        "group": "stations",
        "lat": -15.399301411615902,
        "lon": -52.627450762931915,
        "alt_km": 393.5330747018279,
        "timestamp": "2025-12-21T03:56:49.648506+00:00",
        "meta_object_name": "SHENZHOU-22",
        "meta_object_id": "2025-272A",
        "meta_epoch": "2025-12-20T09:36:17.868384",
        "meta_mean_motion": 15.59501485,
        "meta_eccentricity": 0.00077102,
        "meta_inclination": 41.4685,
        "meta_ra_of_asc_node": 330.1895,
        "meta_arg_of_pericenter": 98.1704,
        "meta_mean_anomaly": 262.0009,
        "meta_ephemeris_type": 0,
        "meta_classification_type": "U",
        "meta_norad_cat_id": 66645,
        "meta_element_set_no": 999,
        "meta_rev_at_epoch": 26519,
        "meta_bstar": 0.00021960295,
        "meta_mean_motion_dot": 0.00017645,
        "meta_mean_motion_ddot": 0,
        "tle_line1": "1 66645U 25272A   25354.40020681  .00017645  00000+0  21960-3 0  9998",
        "tle_line2": "2 66645  41.4685 330.1895 0007710  98.1704 262.0009 15.59501485265195"
      },
      "geometry": {
        "type": "Point",
        "coordinates": [
          -52.627450762931915,
          -15.399301411615902
        ]
      }
    },
    {
      "type": "Feature",
      "properties": {
        "norad_id": 66664,
        "name": "SOYUZ-MS 28",
        "group": "stations",
        "lat": -50.221660747166695,
        "lon": -7.139513921420446,
        "alt_km": 420.1708444368969,
        "timestamp": "2025-12-21T03:56:49.648516+00:00",
        "meta_object_name": "SOYUZ-MS 28",
        "meta_object_id": "2025-275A",
        "meta_epoch": "2025-12-20T14:27:14.497632",
        "meta_mean_motion": 15.49685042,
        "meta_eccentricity": 0.0003193,
        "meta_inclination": 51.6321,
        "meta_ra_of_asc_node": 103.5427,
        "meta_arg_of_pericenter": 277.2005,
        "meta_mean_anomaly": 82.862,
        "meta_ephemeris_type": 0,
        "meta_classification_type": "U",
        "meta_norad_cat_id": 66664,
        "meta_element_set_no": 999,
        "meta_rev_at_epoch": 366,
        "meta_bstar": 0.00012984,
        "meta_mean_motion_dot": 6.881e-05,
        "meta_mean_motion_ddot": 0,
        "tle_line1": "1 66664U 25275A   25354.60225113  .00006881  00000+0  12984-3 0  9997",
        "tle_line2": "2 66664  51.6321 103.5427 0003193 277.2005  82.8620 15.49685042  3664"
      },
      "geometry": {
        "type": "Point",
        "coordinates": [
          -7.139513921420446,
          -50.221660747166695
        ]
      }
    },
    {
      "type": "Feature",
      "properties": {
        "norad_id": 66906,
        "name": "1998-067XS",
        "group": "stations",
        "lat": -27.72210397360128,
        "lon": 76.01794738770212,
        "alt_km": 417.11419021206257,
        "timestamp": "2025-12-21T03:56:49.648526+00:00",
        "meta_object_name": "1998-067XS",
        "meta_object_id": "1998-067XS",
        "meta_epoch": "2025-12-20T11:05:35.991168",
        "meta_mean_motion": 15.50962254,
        "meta_eccentricity": 0.00030029,
        "meta_inclination": 51.6311,
        "meta_ra_of_asc_node": 104.1082,
        "meta_arg_of_pericenter": 237.5,
        "meta_mean_anomaly": 122.5699,
        "meta_ephemeris_type": 0,
        "meta_classification_type": "U",
        "meta_norad_cat_id": 66906,
        "meta_element_set_no": 999,
        "meta_rev_at_epoch": 281,
        "meta_bstar": 0.00037246497,
        "meta_mean_motion_dot": 0.00021596,
        "meta_mean_motion_ddot": 0,
        "tle_line1": "1 66906U 98067XS  25354.46222212  .00021596  00000+0  37246-3 0  9994",
        "tle_line2": "2 66906  51.6311 104.1082 0003002 237.5000 122.5699 15.50962254  2818"
      },
      "geometry": {
        "type": "Point",
        "coordinates": [
          76.01794738770212,
          -27.72210397360128
        ]
      }
    },
    {
      "type": "Feature",
      "properties": {
        "norad_id": 66907,
        "name": "1998-067XT",
        "group": "stations",
        "lat": 11.30796372287912,
        "lon": 109.62894495671382,
        "alt_km": 409.41338015567453,
        "timestamp": "2025-12-21T03:56:49.648535+00:00",
        "meta_object_name": "1998-067XT",
        "meta_object_id": "1998-067XT",
        "meta_epoch": "2025-12-19T11:42:50.767776",
        "meta_mean_motion": 15.52255247,
        "meta_eccentricity": 0.0003998,
        "meta_inclination": 51.6306,
        "meta_ra_of_asc_node": 108.8528,
        "meta_arg_of_pericenter": 265.7173,
        "meta_mean_anomaly": 94.336,
        "meta_ephemeris_type": 0,
        "meta_classification_type": "U",
        "meta_norad_cat_id": 66907,
        "meta_element_set_no": 999,
        "meta_rev_at_epoch": 266,
        "meta_bstar": 0.00077339,
        "meta_mean_motion_dot": 0.00047666,
        "meta_mean_motion_ddot": 0,
        "tle_line1": "1 66907U 98067XT  25353.48808759  .00047666  00000+0  77339-3 0  9995",
        "tle_line2": "2 66907  51.6306 108.8528 0003998 265.7173  94.3360 15.52255247  2660"
      },
      "geometry": {
        "type": "Point",
        "coordinates": [
          109.62894495671382,
          11.30796372287912
        ]
      }
    },
    {
      "type": "Feature",
      "properties": {
        "norad_id": 66908,
        "name": "1998-067XU",
        "group": "stations",
        "lat": 14.945696123391102,
        "lon": 112.71586955032447,
        "alt_km": 408.6512982227241,
        "timestamp": "2025-12-21T03:56:49.648556+00:00",
        "meta_object_name": "1998-067XU",
        "meta_object_id": "1998-067XU",
        "meta_epoch": "2025-12-20T13:57:38.962944",
        "meta_mean_motion": 15.52465702,
        "meta_eccentricity": 0.0003923,
        "meta_inclination": 51.6312,
        "meta_ra_of_asc_node": 103.4063,
        "meta_arg_of_pericenter": 272.2862,
        "meta_mean_anomaly": 87.7679,
        "meta_ephemeris_type": 0,
        "meta_classification_type": "U",
        "meta_norad_cat_id": 66908,
        "meta_element_set_no": 999,
        "meta_rev_at_epoch": 283,
        "meta_bstar": 0.00073918,
        "meta_mean_motion_dot": 0.00045874,
        "meta_mean_motion_ddot": 0,
        "tle_line1": "1 66908U 98067XU  25354.58170096  .00045874  00000+0  73918-3 0  9992",
        "tle_line2": "2 66908  51.6312 103.4063 0003923 272.2862  87.7679 15.52465702  2836"
      },
      "geometry": {
        "type": "Point",
        "coordinates": [
          112.71586955032447,
          14.945696123391102
        ]
      }
    }
  ]
}